[{"OBJECT_NAME":"NEXTSAT-2","OBJECT_ID":"2023-072A","EPOCH":"2026-03-09T23:10:55.073280","MEAN_MOTION":15.26393087,"ECCENTRICITY":0.00062633,"INCLINATION":97.5306,"RA_OF_ASC_NODE":265.1019,"ARG_OF_PERICENTER":22.4193,"MEAN_ANOMALY":337.7318,"EPHEMERIS_TYPE":0,"CLASSIFICATION_TYPE":"U","NORAD_CAT_ID":56743,"ELEMENT_SET_NO":999,"REV_AT_EPOCH":15445,"BSTAR":0.00056400163,"MEAN_MOTION_DOT":0.00014622,"MEAN_MOTION_DDOT":0},{"OBJECT_NAME":"STARLINK-32807","OBJECT_ID":"2025-019S","EPOCH":"2026-03-09T01:55:27.059520","MEAN_MOTION":15.2756908,"ECCENTRICITY":9.839e-5,"INCLINATION":42.9955,"RA_OF_ASC_NODE":84.9826,"ARG_OF_PERICENTER":150.1615,"MEAN_ANOMALY":209.9293,"EPHEMERIS_TYPE":0,"CLASSIFICATION_TYPE":"U","NORAD_CAT_ID":62845,"ELEMENT_SET_NO":999,"REV_AT_EPOCH":6224,"BSTAR":0.00096135463,"MEAN_MOTION_DOT":0.00026278,"MEAN_MOTION_DDOT":0}]
